GLOBALSTAR M094 [+]     
1 39074U 13005C   24068.97055806 -.00000094  00000+0  57098-4 0  9998
2 39074  51.9950 158.5644 0000462  98.4050 261.6869 12.62263425513645
GLOBALSTAR M096 [+]     
1 39075U 13005D   24068.58780961 -.00000115  00000+0 -63409-4 0  9991
2 39075  52.0057 207.8795 0000579  83.6392 276.4540 12.62273249512492
GLOBALSTAR M078 [+]     
1 39076U 13005E   24068.79941455 -.00000099  00000+0  28770-4 0  9994
2 39076  51.9877 292.3840 0000585 184.9313 175.1548 12.62260938511141
GLOBALSTAR M095 [+]     
1 39077U 13005F   24068.82530690 -.00000063  00000+0  22541-3 0  9994
2 39077  51.9793 289.7300 0000165  59.8257 300.2625 12.62264351511006
GLOBALSTAR M087 [+]     
1 52888U 22064A   24068.60637299 -.00000113  00000+0  29296-4 0  9994
2 52888  51.9746 199.0997 0010220 108.8404 251.3606 13.37566855 84069
